[{"OBJECT_NAME":"SEEDS II (CO-66)","OBJECT_ID":"2008-021J","EPOCH":"2026-03-09T22:06:22.421376","MEAN_MOTION":15.29097236,"ECCENTRICITY":0.00014475,"INCLINATION":97.7519,"RA_OF_ASC_NODE":62.3611,"ARG_OF_PERICENTER":359.2618,"MEAN_ANOMALY":0.8619,"EPHEMERIS_TYPE":0,"CLASSIFICATION_TYPE":"U","NORAD_CAT_ID":32791,"ELEMENT_SET_NO":999,"REV_AT_EPOCH":97210,"BSTAR":0.00084213052,"MEAN_MOTION_DOT":0.00023758,"MEAN_MOTION_DDOT":0},{"OBJECT_NAME":"STARLINK-31193","OBJECT_ID":"2024-012L","EPOCH":"2026-03-09T08:11:48.671520","MEAN_MOTION":15.27580624,"ECCENTRICITY":0.00015256,"INCLINATION":43.0014,"RA_OF_ASC_NODE":167.1338,"ARG_OF_PERICENTER":274.8459,"MEAN_ANOMALY":85.2219,"EPHEMERIS_TYPE":0,"CLASSIFICATION_TYPE":"U","NORAD_CAT_ID":58797,"ELEMENT_SET_NO":999,"REV_AT_EPOCH":12118,"BSTAR":-9.4977982e-5,"MEAN_MOTION_DOT":-2.875e-5,"MEAN_MOTION_DDOT":0}]
